[{"OBJECT_NAME":"LEMUR-2-TARTIFLETTE","OBJECT_ID":"2025-276DZ","EPOCH":"2026-04-25T16:34:38.278848","MEAN_MOTION":14.98370646,"ECCENTRICITY":0.001175,"INCLINATION":97.5289,"RA_OF_ASC_NODE":188.1458,"ARG_OF_PERICENTER":322.2667,"MEAN_ANOMALY":37.7731,"EPHEMERIS_TYPE":0,"CLASSIFICATION_TYPE":"U","NORAD_CAT_ID":66784,"ELEMENT_SET_NO":999,"REV_AT_EPOCH":2233,"BSTAR":0.00060213,"MEAN_MOTION_DOT":7.134e-5,"MEAN_MOTION_DDOT":0},{"OBJECT_NAME":"LEMUR-2-VUKASIN","OBJECT_ID":"2025-276EA","EPOCH":"2026-04-25T17:31:43.171392","MEAN_MOTION":14.99681581,"ECCENTRICITY":0.0006247,"INCLINATION":97.5242,"RA_OF_ASC_NODE":188.3728,"ARG_OF_PERICENTER":307.2234,"MEAN_ANOMALY":52.8419,"EPHEMERIS_TYPE":0,"CLASSIFICATION_TYPE":"U","NORAD_CAT_ID":66785,"ELEMENT_SET_NO":999,"REV_AT_EPOCH":2228,"BSTAR":0.00057132,"MEAN_MOTION_DOT":6.995e-5,"MEAN_MOTION_DDOT":0},{"OBJECT_NAME":"LEMUR-2-HOTSPUR-TOM","OBJECT_ID":"2025-276EB","EPOCH":"2026-04-25T17:56:05.125920","MEAN_MOTION":14.98351833,"ECCENTRICITY":0.0012075,"INCLINATION":97.5264,"RA_OF_ASC_NODE":188.1975,"ARG_OF_PERICENTER":314.3676,"MEAN_ANOMALY":45.6557,"EPHEMERIS_TYPE":0,"CLASSIFICATION_TYPE":"U","NORAD_CAT_ID":66786,"ELEMENT_SET_NO":999,"REV_AT_EPOCH":2227,"BSTAR":0.00053471,"MEAN_MOTION_DOT":6.326e-5,"MEAN_MOTION_DDOT":0},{"OBJECT_NAME":"LEMUR-2-MYRA","OBJECT_ID":"2025-276EC","EPOCH":"2026-04-25T18:11:44.134080","MEAN_MOTION":14.99654006,"ECCENTRICITY":0.0010985,"INCLINATION":97.5308,"RA_OF_ASC_NODE":188.358,"ARG_OF_PERICENTER":327.5398,"MEAN_ANOMALY":32.5149,"EPHEMERIS_TYPE":0,"CLASSIFICATION_TYPE":"U","NORAD_CAT_ID":66787,"ELEMENT_SET_NO":999,"REV_AT_EPOCH":2235,"BSTAR":0.000505,"MEAN_MOTION_DOT":6.176e-5,"MEAN_MOTION_DDOT":0},{"OBJECT_NAME":"LEMUR-2 FIKRETDENGIZ","OBJECT_ID":"2026-004A","EPOCH":"2026-04-25T11:38:47.287392","MEAN_MOTION":14.87910365,"ECCENTRICITY":0.0007569,"INCLINATION":97.8026,"RA_OF_ASC_NODE":114.8717,"ARG_OF_PERICENTER":324.262,"MEAN_ANOMALY":35.809,"EPHEMERIS_TYPE":0,"CLASSIFICATION_TYPE":"U","NORAD_CAT_ID":67363,"ELEMENT_SET_NO":999,"REV_AT_EPOCH":1544,"BSTAR":0.00053171,"MEAN_MOTION_DOT":4.818e-5,"MEAN_MOTION_DDOT":0},{"OBJECT_NAME":"LEMUR-2-CALLUM-K-J","OBJECT_ID":"2026-004B","EPOCH":"2026-04-25T13:24:37.664064","MEAN_MOTION":14.87515592,"ECCENTRICITY":0.0007383,"INCLINATION":97.8065,"RA_OF_ASC_NODE":114.9729,"ARG_OF_PERICENTER":310.5233,"MEAN_ANOMALY":49.534,"EPHEMERIS_TYPE":0,"CLASSIFICATION_TYPE":"U","NORAD_CAT_ID":67364,"ELEMENT_SET_NO":999,"REV_AT_EPOCH":1546,"BSTAR":0.00018692,"MEAN_MOTION_DOT":1.641e-5,"MEAN_MOTION_DDOT":0},{"OBJECT_NAME":"LEMUR-2-MARIO-SOUSA","OBJECT_ID":"2026-004C","EPOCH":"2026-04-25T17:51:08.965728","MEAN_MOTION":14.88072837,"ECCENTRICITY":0.000714,"INCLINATION":97.8003,"RA_OF_ASC_NODE":115.1246,"ARG_OF_PERICENTER":324.7778,"MEAN_ANOMALY":35.2966,"EPHEMERIS_TYPE":0,"CLASSIFICATION_TYPE":"U","NORAD_CAT_ID":67365,"ELEMENT_SET_NO":999,"REV_AT_EPOCH":1549,"BSTAR":0.00056075,"MEAN_MOTION_DOT":5.105e-5,"MEAN_MOTION_DDOT":0},{"OBJECT_NAME":"LEMUR-2-SONNENBLUME","OBJECT_ID":"2026-004E","EPOCH":"2026-04-25T17:42:52.996032","MEAN_MOTION":14.88036794,"ECCENTRICITY":0.0006934,"INCLINATION":97.7992,"RA_OF_ASC_NODE":115.1178,"ARG_OF_PERICENTER":326.4897,"MEAN_ANOMALY":33.588,"EPHEMERIS_TYPE":0,"CLASSIFICATION_TYPE":"U","NORAD_CAT_ID":67367,"ELEMENT_SET_NO":999,"REV_AT_EPOCH":1549,"BSTAR":0.00034392,"MEAN_MOTION_DOT":3.106e-5,"MEAN_MOTION_DDOT":0},{"OBJECT_NAME":"LEMUR-2-WOBLER","OBJECT_ID":"2026-004F","EPOCH":"2026-04-25T17:40:46.280064","MEAN_MOTION":14.88115459,"ECCENTRICITY":0.0006619,"INCLINATION":97.805,"RA_OF_ASC_NODE":115.1897,"ARG_OF_PERICENTER":314.7637,"MEAN_ANOMALY":45.304,"EPHEMERIS_TYPE":0,"CLASSIFICATION_TYPE":"U","NORAD_CAT_ID":67368,"ELEMENT_SET_NO":999,"REV_AT_EPOCH":1549,"BSTAR":0.00050734,"MEAN_MOTION_DOT":4.618e-5,"MEAN_MOTION_DDOT":0},{"OBJECT_NAME":"LEMUR-2-GRAM-E-SUE","OBJECT_ID":"2026-004H","EPOCH":"2026-04-25T17:28:46.524000","MEAN_MOTION":14.8820596,"ECCENTRICITY":0.0006077,"INCLINATION":97.7978,"RA_OF_ASC_NODE":115.1179,"ARG_OF_PERICENTER":331.4087,"MEAN_ANOMALY":28.6795,"EPHEMERIS_TYPE":0,"CLASSIFICATION_TYPE":"U","NORAD_CAT_ID":67370,"ELEMENT_SET_NO":999,"REV_AT_EPOCH":1549,"BSTAR":0.00048634,"MEAN_MOTION_DOT":4.434e-5,"MEAN_MOTION_DDOT":0},{"OBJECT_NAME":"LEMUR-2-KATIE","OBJECT_ID":"2026-004AA","EPOCH":"2026-04-25T13:37:10.359264","MEAN_MOTION":14.89688435,"ECCENTRICITY":0.0001203,"INCLINATION":97.8047,"RA_OF_ASC_NODE":115.2528,"ARG_OF_PERICENTER":263.5586,"MEAN_ANOMALY":96.5495,"EPHEMERIS_TYPE":0,"CLASSIFICATION_TYPE":"U","NORAD_CAT_ID":67387,"ELEMENT_SET_NO":999,"REV_AT_EPOCH":1547,"BSTAR":0.00044452,"MEAN_MOTION_DOT":4.199e-5,"MEAN_MOTION_DDOT":0},{"OBJECT_NAME":"LEMUR-2-HCS-BAZUS","OBJECT_ID":"2026-004AB","EPOCH":"2026-04-25T13:33:32.944032","MEAN_MOTION":14.89581004,"ECCENTRICITY":7.93e-5,"INCLINATION":97.8035,"RA_OF_ASC_NODE":115.2424,"ARG_OF_PERICENTER":238.9499,"MEAN_ANOMALY":121.164,"EPHEMERIS_TYPE":0,"CLASSIFICATION_TYPE":"U","NORAD_CAT_ID":67388,"ELEMENT_SET_NO":999,"REV_AT_EPOCH":1547,"BSTAR":0.00027876,"MEAN_MOTION_DOT":2.605e-5,"MEAN_MOTION_DDOT":0}]
