LEMUR-2-TARTIFLETTE     
1 66784U 25276DZ  26115.69072082  .00007134  00000+0  60213-3 0  9991
2 66784  97.5289 188.1458 0011750 322.2667  37.7731 14.98370646 22336
LEMUR-2-VUKASIN         
1 66785U 25276EA  26115.73036078  .00006995  00000+0  57132-3 0  9992
2 66785  97.5242 188.3728 0006247 307.2234  52.8419 14.99681581 22285
LEMUR-2-HOTSPUR-TOM     
1 66786U 25276EB  26115.74728155  .00006326  00000+0  53471-3 0  9998
2 66786  97.5264 188.1975 0012075 314.3676  45.6557 14.98351833 22272
LEMUR-2-MYRA            
1 66787U 25276EC  26115.75814970  .00006176  00000+0  50500-3 0  9994
2 66787  97.5308 188.3580 0010985 327.5398  32.5149 14.99654006 22351
LEMUR-2 FIKRETDENGIZ    
1 67363U 26004A   26115.48526953  .00004818  00000+0  53171-3 0  9994
2 67363  97.8026 114.8717 0007569 324.2620  35.8090 14.87910365 15447
LEMUR-2-CALLUM-K-J      
1 67364U 26004B   26115.55876926  .00001641  00000+0  18692-3 0  9991
2 67364  97.8065 114.9729 0007383 310.5233  49.5340 14.87515592 15462
LEMUR-2-MARIO-SOUSA     
1 67365U 26004C   26115.74385377  .00005105  00000+0  56075-3 0  9994
2 67365  97.8003 115.1246 0007140 324.7778  35.2966 14.88072837 15494
LEMUR-2-SONNENBLUME     
1 67367U 26004E   26115.73811338  .00003106  00000+0  34392-3 0  9993
2 67367  97.7992 115.1178 0006934 326.4897  33.5880 14.88036794 15495
LEMUR-2-WOBLER          
1 67368U 26004F   26115.73664676  .00004618  00000+0  50734-3 0  9992
2 67368  97.8050 115.1897 0006619 314.7637  45.3040 14.88115459 15497
LEMUR-2-GRAM-E-SUE      
1 67370U 26004H   26115.72831625  .00004434  00000+0  48634-3 0  9996
2 67370  97.7978 115.1179 0006077 331.4087  28.6795 14.88205960 15492
LEMUR-2-KATIE           
1 67387U 26004AA  26115.56748101  .00004199  00000+0  44452-3 0  9994
2 67387  97.8047 115.2528 0001203 263.5586  96.5495 14.89688435 15474
LEMUR-2-HCS-BAZUS       
1 67388U 26004AB  26115.56496463  .00002605  00000+0  27876-3 0  9997
2 67388  97.8035 115.2424 0000793 238.9499 121.1640 14.89581004 15470
